{
    "links": {
        "self": "http://www.neowsapp.com/rest/v1/neo/3409687?api_key=iIulBulltgU6a56xZRHN4H3l9WmuAYTsLGpBGhQ2"
    },
    "id": "3409687",
    "neo_reference_id": "3409687",
    "name": "(2008 HR3)",
    "designation": "2008 HR3",
    "nasa_jpl_url": "http://ssd.jpl.nasa.gov/sbdb.cgi?sstr=3409687",
    "absolute_magnitude_h": 24.8,
    "estimated_diameter": {
        "kilometers": {
            "estimated_diameter_min": 0.0291443905,
            "estimated_diameter_max": 0.0651688382
        },
        "meters": {
            "estimated_diameter_min": 29.1443904535,
            "estimated_diameter_max": 65.1688382168
        },
        "miles": {
            "estimated_diameter_min": 0.018109479,
            "estimated_diameter_max": 0.0404940262
        },
        "feet": {
            "estimated_diameter_min": 95.6180819754,
            "estimated_diameter_max": 213.8085311752
        }
    },
    "is_potentially_hazardous_asteroid": false,
    "close_approach_data": [
        {
            "close_approach_date": "2008-05-11",
            "close_approach_date_full": "2008-May-11 14:46",
            "epoch_date_close_approach": 1210517160000,
            "relative_velocity": {
                "kilometers_per_second": "16.5369451507",
                "kilometers_per_hour": "59533.0025426514",
                "miles_per_hour": "36991.4926076825"
            },
            "miss_distance": {
                "astronomical": "0.00548928",
                "lunar": "2.13532992",
                "kilometers": "821184.5958336",
                "miles": "510260.44675968"
            },
            "orbiting_body": "Moon"
        },
        {
            "close_approach_date": "2008-05-11",
            "close_approach_date_full": "2008-May-11 16:16",
            "epoch_date_close_approach": 1210522560000,
            "relative_velocity": {
                "kilometers_per_second": "15.5155293673",
                "kilometers_per_hour": "55855.9057223524",
                "miles_per_hour": "34706.6876417583"
            },
            "miss_distance": {
                "astronomical": "0.0078444292",
                "lunar": "3.0514829588",
                "kilometers": "1173509.899685804",
                "miles": "729185.2388959352"
            },
            "orbiting_body": "Earth"
        }
    ],
    "orbital_data": {
        "orbit_id": "16",
        "orbit_determination_date": "2017-04-06 09:03:36",
        "first_observation_date": "2008-04-29",
        "last_observation_date": "2008-05-09",
        "data_arc_in_days": 10,
        "observations_used": 60,
        "orbit_uncertainty": "8",
        "minimum_orbit_intersection": ".0020218",
        "jupiter_tisserand_invariant": "3.188",
        "epoch_osculation": "2454590.5",
        "eccentricity": ".6591324381880082",
        "semi_major_axis": "2.398074907426101",
        "inclination": "3.945798275258022",
        "ascending_node_longitude": "228.8598067574133",
        "orbital_period": "1356.414875928506",
        "perihelion_distance": ".8174259467368532",
        "perihelion_argument": "60.37246536134151",
        "aphelion_distance": "3.978723868115349",
        "perihelion_time": "2454637.566074943710",
        "mean_anomaly": "347.5084037484202",
        "mean_motion": ".2654055233311781",
        "equinox": "J2000",
        "orbit_class": {
            "orbit_class_type": "APO",
            "orbit_class_description": "Near-Earth asteroid orbits which cross the Earth’s orbit similar to that of 1862 Apollo",
            "orbit_class_range": "a (semi-major axis) > 1.0 AU; q (perihelion) < 1.017 AU"
        }
    },
    "is_sentry_object": false
}